[
  {
    "COMMENT": "GENERATED VIA SPACETRACK.ORG API",
    "ORIGINATOR": "18 SPCS",
    "NORAD_CAT_ID": "48621",
    "OBJECT_NAME": "HAIYANG 2D",
    "OBJECT_TYPE": "PAYLOAD",
    "CLASSIFICATION_TYPE": "U",
    "INTLDES": "21043A",
    "EPOCH": "2023-07-07 09:37:57",
    "EPOCH_MICROSECONDS": "482400",
    "MEAN_MOTION": "13.83376664",
    "ECCENTRICITY": "0.0007999",
    "INCLINATION": "65.9979",
    "RA_OF_ASC_NODE": "103.0348",
    "ARG_OF_PERICENTER": "261.3641",
    "MEAN_ANOMALY": "98.6521",
    "EPHEMERIS_TYPE": "0",
    "ELEMENT_SET_NO": "999",
    "REV_AT_EPOCH": "10778",
    "BSTAR": "0.000086277",
    "MEAN_MOTION_DOT": "0.00000014",
    "MEAN_MOTION_DDOT": "0",
    "FILE": "3951945",
    "TLE_LINE0": "0 HAIYANG 2D",
    "TLE_LINE1": "1 48621U 21043A   23188.40135975  .00000014  00000-0  86277-4 0  9996",
    "TLE_LINE2": "2 48621  65.9979 103.0348 0007999 261.3641  98.6521 13.83376664107785",
    "OBJECT_ID": "2021-043A",
    "OBJECT_NUMBER": "48621",
    "SEMIMAJOR_AXIS": "7330.072",
    "PERIOD": "104.093",
    "APOGEE": "957.800",
    "PERIGEE": "946.073",
    "DECAYED": "0"
  },
  {
    "COMMENT": "GENERATED VIA SPACETRACK.ORG API",
    "ORIGINATOR": "18 SPCS",
    "NORAD_CAT_ID": "48621",
    "OBJECT_NAME": "HAIYANG 2D",
    "OBJECT_TYPE": "PAYLOAD",
    "CLASSIFICATION_TYPE": "U",
    "INTLDES": "21043A",
    "EPOCH": "2023-07-07 20:02:35",
    "EPOCH_MICROSECONDS": "16000",
    "MEAN_MOTION": "13.8337676",
    "ECCENTRICITY": "0.0007988",
    "INCLINATION": "65.9979",
    "RA_OF_ASC_NODE": "101.9549",
    "ARG_OF_PERICENTER": "261.3487",
    "MEAN_ANOMALY": "98.6676",
    "EPHEMERIS_TYPE": "0",
    "ELEMENT_SET_NO": "999",
    "REV_AT_EPOCH": "10784",
    "BSTAR": "0.000089095",
    "MEAN_MOTION_DOT": "0.00000017",
    "MEAN_MOTION_DDOT": "0",
    "FILE": "3952261",
    "TLE_LINE0": "0 HAIYANG 2D",
    "TLE_LINE1": "1 48621U 21043A   23188.83512750  .00000017  00000-0  89095-4 0  9997",
    "TLE_LINE2": "2 48621  65.9979 101.9549 0007988 261.3487  98.6676 13.83376760107846",
    "OBJECT_ID": "2021-043A",
    "OBJECT_NUMBER": "48621",
    "SEMIMAJOR_AXIS": "7330.071",
    "PERIOD": "104.093",
    "APOGEE": "957.791",
    "PERIGEE": "946.081",
    "DECAYED": "0"
  },
  {
    "COMMENT": "GENERATED VIA SPACETRACK.ORG API",
    "ORIGINATOR": "18 SPCS",
    "NORAD_CAT_ID": "48621",
    "OBJECT_NAME": "HAIYANG 2D",
    "OBJECT_TYPE": "PAYLOAD",
    "CLASSIFICATION_TYPE": "U",
    "INTLDES": "21043A",
    "EPOCH": "2023-07-08 01:14:53",
    "EPOCH_MICROSECONDS": "782368",
    "MEAN_MOTION": "13.83376826",
    "ECCENTRICITY": "0.0007984",
    "INCLINATION": "65.998",
    "RA_OF_ASC_NODE": "101.415",
    "ARG_OF_PERICENTER": "261.3486",
    "MEAN_ANOMALY": "98.6678",
    "EPHEMERIS_TYPE": "0",
    "ELEMENT_SET_NO": "999",
    "REV_AT_EPOCH": "10787",
    "BSTAR": "0.00010017",
    "MEAN_MOTION_DOT": "0.00000029",
    "MEAN_MOTION_DDOT": "0",
    "FILE": "3952506",
    "TLE_LINE0": "0 HAIYANG 2D",
    "TLE_LINE1": "1 48621U 21043A   23189.05201137  .00000029  00000-0  10017-3 0  9996",
    "TLE_LINE2": "2 48621  65.9980 101.4150 0007984 261.3486  98.6678 13.83376826107874",
    "OBJECT_ID": "2021-043A",
    "OBJECT_NUMBER": "48621",
    "SEMIMAJOR_AXIS": "7330.071",
    "PERIOD": "104.093",
    "APOGEE": "957.788",
    "PERIGEE": "946.084",
    "DECAYED": "0"
  },
  {
    "COMMENT": "GENERATED VIA SPACETRACK.ORG API",
    "ORIGINATOR": "18 SPCS",
    "NORAD_CAT_ID": "48621",
    "OBJECT_NAME": "HAIYANG 2D",
    "OBJECT_TYPE": "PAYLOAD",
    "CLASSIFICATION_TYPE": "U",
    "INTLDES": "21043A",
    "EPOCH": "2023-07-08 09:55:25",
    "EPOCH_MICROSECONDS": "61664",
    "MEAN_MOTION": "13.83376846",
    "ECCENTRICITY": "0.0007976",
    "INCLINATION": "65.998",
    "RA_OF_ASC_NODE": "100.5151",
    "ARG_OF_PERICENTER": "261.4093",
    "MEAN_ANOMALY": "98.6072",
    "EPHEMERIS_TYPE": "0",
    "ELEMENT_SET_NO": "999",
    "REV_AT_EPOCH": "10792",
    "BSTAR": "0.000087017",
    "MEAN_MOTION_DOT": "0.00000015",
    "MEAN_MOTION_DDOT": "0",
    "FILE": "3952820",
    "TLE_LINE0": "0 HAIYANG 2D",
    "TLE_LINE1": "1 48621U 21043A   23189.41348451  .00000015  00000-0  87017-4 0  9997",
    "TLE_LINE2": "2 48621  65.9980 100.5151 0007976 261.4093  98.6072 13.83376846107927",
    "OBJECT_ID": "2021-043A",
    "OBJECT_NUMBER": "48621",
    "SEMIMAJOR_AXIS": "7330.071",
    "PERIOD": "104.093",
    "APOGEE": "957.782",
    "PERIGEE": "946.089",
    "DECAYED": "0"
  },
  {
    "COMMENT": "GENERATED VIA SPACETRACK.ORG API",
    "ORIGINATOR": "18 SPCS",
    "NORAD_CAT_ID": "48621",
    "OBJECT_NAME": "HAIYANG 2D",
    "OBJECT_TYPE": "PAYLOAD",
    "CLASSIFICATION_TYPE": "U",
    "INTLDES": "21043A",
    "EPOCH": "2023-07-08 20:20:02",
    "EPOCH_MICROSECONDS": "591808",
    "MEAN_MOTION": "13.83376906",
    "ECCENTRICITY": "0.0007967",
    "INCLINATION": "65.998",
    "RA_OF_ASC_NODE": "99.4352",
    "ARG_OF_PERICENTER": "261.3929",
    "MEAN_ANOMALY": "98.6236",
    "EPHEMERIS_TYPE": "0",
    "ELEMENT_SET_NO": "999",
    "REV_AT_EPOCH": "10798",
    "BSTAR": "0.000081894",
    "MEAN_MOTION_DOT": "0.00000009",
    "MEAN_MOTION_DDOT": "0",
    "FILE": "3953177",
    "TLE_LINE0": "0 HAIYANG 2D",
    "TLE_LINE1": "1 48621U 21043A   23189.84725222  .00000009  00000-0  81894-4 0  9999",
    "TLE_LINE2": "2 48621  65.9980  99.4352 0007967 261.3929  98.6236 13.83376906107988",
    "OBJECT_ID": "2021-043A",
    "OBJECT_NUMBER": "48621",
    "SEMIMAJOR_AXIS": "7330.071",
    "PERIOD": "104.093",
    "APOGEE": "957.776",
    "PERIGEE": "946.096",
    "DECAYED": "0"
  },
  {
    "COMMENT": "GENERATED VIA SPACETRACK.ORG API",
    "ORIGINATOR": "18 SPCS",
    "NORAD_CAT_ID": "48621",
    "OBJECT_NAME": "HAIYANG 2D",
    "OBJECT_TYPE": "PAYLOAD",
    "CLASSIFICATION_TYPE": "U",
    "INTLDES": "21043A",
    "EPOCH": "2023-07-09 05:00:33",
    "EPOCH_MICROSECONDS": "869376",
    "MEAN_MOTION": "13.83376935",
    "ECCENTRICITY": "0.0007961",
    "INCLINATION": "65.998",
    "RA_OF_ASC_NODE": "98.5352",
    "ARG_OF_PERICENTER": "261.4447",
    "MEAN_ANOMALY": "98.5719",
    "EPHEMERIS_TYPE": "0",
    "ELEMENT_SET_NO": "999",
    "REV_AT_EPOCH": "10803",
    "BSTAR": "0.000078585",
    "MEAN_MOTION_DOT": "0.00000005",
    "MEAN_MOTION_DDOT": "0",
    "FILE": "3953438",
    "TLE_LINE0": "0 HAIYANG 2D",
    "TLE_LINE1": "1 48621U 21043A   23190.20872534  .00000005  00000-0  78585-4 0  9999",
    "TLE_LINE2": "2 48621  65.9980  98.5352 0007961 261.4447  98.5719 13.83376935108032",
    "OBJECT_ID": "2021-043A",
    "OBJECT_NUMBER": "48621",
    "SEMIMAJOR_AXIS": "7330.071",
    "PERIOD": "104.093",
    "APOGEE": "957.771",
    "PERIGEE": "946.100",
    "DECAYED": "0"
  },
  {
    "COMMENT": "GENERATED VIA SPACETRACK.ORG API",
    "ORIGINATOR": "18 SPCS",
    "NORAD_CAT_ID": "48621",
    "OBJECT_NAME": "HAIYANG 2D",
    "OBJECT_TYPE": "PAYLOAD",
    "CLASSIFICATION_TYPE": "U",
    "INTLDES": "21043A",
    "EPOCH": "2023-07-09 11:56:58",
    "EPOCH_MICROSECONDS": "889184",
    "MEAN_MOTION": "13.83376945",
    "ECCENTRICITY": "0.0007954",
    "INCLINATION": "65.9981",
    "RA_OF_ASC_NODE": "97.8153",
    "ARG_OF_PERICENTER": "261.4763",
    "MEAN_ANOMALY": "98.5404",
    "EPHEMERIS_TYPE": "0",
    "ELEMENT_SET_NO": "999",
    "REV_AT_EPOCH": "10807",
    "BSTAR": "0.000069675",
    "MEAN_MOTION_DOT": "-0.00000005",
    "MEAN_MOTION_DDOT": "0",
    "FILE": "3953734",
    "TLE_LINE0": "0 HAIYANG 2D",
    "TLE_LINE1": "1 48621U 21043A   23190.49790381 -.00000005  00000-0  69675-4 0  9990",
    "TLE_LINE2": "2 48621  65.9981  97.8153 0007954 261.4763  98.5404 13.83376945108073",
    "OBJECT_ID": "2021-043A",
    "OBJECT_NUMBER": "48621",
    "SEMIMAJOR_AXIS": "7330.071",
    "PERIOD": "104.093",
    "APOGEE": "957.766",
    "PERIGEE": "946.105",
    "DECAYED": "0"
  },
  {
    "COMMENT": "GENERATED VIA SPACETRACK.ORG API",
    "ORIGINATOR": "18 SPCS",
    "NORAD_CAT_ID": "48621",
    "OBJECT_NAME": "HAIYANG 2D",
    "OBJECT_TYPE": "PAYLOAD",
    "CLASSIFICATION_TYPE": "U",
    "INTLDES": "21043A",
    "EPOCH": "2023-07-09 18:53:23",
    "EPOCH_MICROSECONDS": "906400",
    "MEAN_MOTION": "13.83376983",
    "ECCENTRICITY": "0.0007947",
    "INCLINATION": "65.9981",
    "RA_OF_ASC_NODE": "97.0954",
    "ARG_OF_PERICENTER": "261.4452",
    "MEAN_ANOMALY": "98.5716",
    "EPHEMERIS_TYPE": "0",
    "ELEMENT_SET_NO": "999",
    "REV_AT_EPOCH": "10811",
    "BSTAR": "0.000064299",
    "MEAN_MOTION_DOT": "-0.0000001",
    "MEAN_MOTION_DDOT": "0",
    "FILE": "3953948",
    "TLE_LINE0": "0 HAIYANG 2D",
    "TLE_LINE1": "1 48621U 21043A   23190.78708225 -.00000010  00000-0  64299-4 0  9991",
    "TLE_LINE2": "2 48621  65.9981  97.0954 0007947 261.4452  98.5716 13.83376983108114",
    "OBJECT_ID": "2021-043A",
    "OBJECT_NUMBER": "48621",
    "SEMIMAJOR_AXIS": "7330.070",
    "PERIOD": "104.093",
    "APOGEE": "957.761",
    "PERIGEE": "946.110",
    "DECAYED": "0"
  }
]